ONEWEB-0208             
1 48243U 21031AK  25297.57540926  .00000100  00000+0  23404-3 0  9997
2 48243  87.9022 336.6400 0002035  96.3597 263.7764 13.14504172217353
ONEWEB-0200             
1 48244U 21031AL  25297.61506407 -.00000118  00000+0 -35392-3 0  9999
2 48244  87.9022 336.6218 0001987  95.3880 264.7477 13.14502671217286
ONEWEB-0217             
1 48245U 21031AM  25297.63091983  .00000186  00000+0  46728-3 0  9998
2 48245  87.9029 336.6087 0002174  96.5588 263.5789 13.14503560217231
ONEWEB-0211             
1 48767U 21045A   25297.75079485  .00002615  00000+0  68531-2 0  9992
2 48767  87.8972 306.1106 0002171 100.0352 260.1024 13.16119997213473
ONEWEB-0223             
1 48768U 21045B   25297.49161134  .00000128  00000+0  30506-3 0  9996
2 48768  87.8963 306.2199 0002041 105.4975 254.6381 13.15549612213411
ONEWEB-0230             
1 48769U 21045C   25297.53914999  .00000040  00000+0  72388-4 0  9995
2 48769  87.8959 306.2422 0001690  91.8443 268.2881 13.15548364213681
ONEWEB-0237             
1 48770U 21045D   25297.75623029 -.00000112  00000+0 -33099-3 0  9999
2 48770  87.8965 306.1970 0001866 100.7192 259.4149 13.15548789213436
ONEWEB-0235             
1 48771U 21045E   25297.73087572  .00000091  00000+0  20754-3 0  9993
2 48771  87.8964 306.1731 0002019 106.1440 253.9913 13.15549925213428
ONEWEB-0242             
1 48772U 21045F   25297.72454441  .00000185  00000+0  45774-3 0  9999
2 48772  87.8973 306.1641 0001748  97.4255 262.7074 13.15548513213465
ONEWEB-0241             
1 48773U 21045G   25297.78792877  .00000122  00000+0  28963-3 0  9996
2 48773  87.8958 306.1938 0002218  99.8091 260.3290 13.15548506213382
ONEWEB-0243             
1 48774U 21045H   25297.74353735  .00001003  00000+0  26284-2 0  9991
2 48774  87.8969 306.2093 0001845 104.8010 255.3325 13.15558643213400
ONEWEB-0222             
1 48775U 21045J   25297.72691308  .00000166  00000+0  40802-3 0  9993
2 48775  87.8969 306.1644 0001928  96.9954 263.1396 13.15550472213443
ONEWEB-0244             
1 48776U 21045K   25297.75305740 -.00000110  00000+0 -32587-3 0  9991
2 48776  87.8974 306.1443 0001860  97.2484 262.8858 13.15547981214018
ONEWEB-0247             
1 48777U 21045L   25297.74988781 -.00000179  00000+0 -50975-3 0  9999
2 48777  87.8962 306.2087 0002044 121.4451 238.6880 13.15548458213453
ONEWEB-0245             
1 48778U 21045M   25297.74513109 -.00000094  00000+0 -28300-3 0  9991
2 48778  87.8963 306.1736 0002064  93.5881 266.5486 13.15549415213426
ONEWEB-0229             
1 48779U 21045N   25297.51220657 -.00000097  00000+0 -29206-3 0  9999
2 48779  87.8962 306.2194 0001757  96.3931 263.7399 13.15549222213428
ONEWEB-0228             
1 48780U 21045P   25297.77379640  .00000141  00000+0  34039-3 0  9994
2 48780  87.8969 306.1462 0001851  96.1431 263.9910 13.15549276213376
ONEWEB-0232             
1 48781U 21045Q   25297.74830402 -.00000144  00000+0 -41775-3 0  9990
2 48781  87.8973 306.1422 0001844  93.3859 266.7482 13.15549083213699
ONEWEB-0231             
1 48782U 21045R   25297.72612623  .00000183  00000+0  45074-3 0  9999
2 48782  87.8961 306.1956 0001846 102.7063 257.4273 13.15549987213387
ONEWEB-0234             
1 48783U 21045S   25297.76401169 -.00000034  00000+0 -12535-3 0  9998
2 48783  87.8964 306.1594 0002556  78.5614 281.5803 13.15548975213529
ONEWEB-0238             
1 48784U 21045T   25297.76427735 -.00000020  00000+0 -87648-4 0  9999
2 48784  87.8961 306.1540 0002103  85.7259 274.4111 13.15546434213421
ONEWEB-0240             
1 48785U 21045U   25297.48131514  .00000168  00000+0  41111-3 0  9991
2 48785  87.8969 306.1984 0002174  97.7861 262.3516 13.15547188213413
ONEWEB-0246             
1 48786U 21045V   25297.47577088  .00000191  00000+0  47306-3 0  9999
2 48786  87.8971 306.2127 0001740  97.5915 262.5413 13.15548373213283
ONEWEB-0210             
1 48787U 21045W   25297.75464622 -.00000066  00000+0 -20869-3 0  9998
2 48787  87.8971 306.1564 0001725 114.3538 245.7773 13.15548686213368
ONEWEB-0214             
1 48788U 21045X   25297.76336330 -.00000080  00000+0 -24702-3 0  9990
2 48788  87.8968 306.1412 0001567 104.6079 255.5225 13.15546808213335
ONEWEB-0221             
1 48789U 21045Y   25297.77049565 -.00000014  00000+0 -71806-4 0  9998
2 48789  87.8958 306.1621 0001935  99.7645 260.3704 13.15548669213422
ONEWEB-0213             
1 48790U 21045Z   25297.45517179  .00000044  00000+0  83877-4 0  9998
2 48790  87.8961 306.2345 0001859 101.1528 258.9811 13.15548191213449
ONEWEB-0212             
1 48791U 21045AA  25297.73641584 -.00000022  00000+0 -92383-4 0  9998
2 48791  87.8973 306.1638 0001910  91.1334 269.0016 13.15547446213473
ONEWEB-0227             
1 48792U 21045AB  25297.73562920  .00000016  00000+0  74760-5 0  9996
2 48792  87.8962 306.1793 0001914  95.9789 264.1559 13.15549830213426
ONEWEB-0226             
1 48793U 21045AC  25297.72929808  .00000117  00000+0  27742-3 0  9996
2 48793  87.8964 306.1887 0001760 103.7308 256.4018 13.15549067213399
ONEWEB-0224             
1 48794U 21045AD  25297.54072683  .00000057  00000+0  11687-3 0  9991
2 48794  87.8961 306.2611 0002828  95.3795 264.7658 13.15549716213297
ONEWEB-0233             
1 48795U 21045AE  25297.77352087  .00000115  00000+0  27076-3 0  9990
2 48795  87.8958 306.2259 0002083 100.4787 259.6578 13.15548940213342
ONEWEB-0190             
1 48796U 21045AF  25297.76098308 -.00000137  00000+0 -39747-3 0  9997
2 48796  87.8961 306.1905 0002135 114.2313 245.9041 13.15548166213411
ONEWEB-0236             
1 48797U 21045AG  25297.55024225  .00000109  00000+0  25524-3 0  9997
2 48797  87.8961 306.2439 0001889  88.6864 271.4483 13.15548366213275
ONEWEB-0248             
1 48798U 21045AH  25297.79107640  .00000108  00000+0  25216-3 0  9994
2 48798  87.8971 306.1545 0002361 101.9585 258.1810 13.15546632213460
ONEWEB-0225             
1 48799U 21045AJ  25297.73721825 -.00000017  00000+0 -78717-4 0  9992
2 48799  87.8965 306.1932 0002081 109.4443 250.6912 13.15548399213461
ONEWEB-0215             
1 48800U 21045AK  25297.47892221  .00000210  00000+0  52350-3 0  9992
2 48800  87.8972 306.2002 0002285 109.0770 251.0608 13.15550732213300
ONEWEB-0216             
1 48801U 21045AL  25297.79266115  .00000149  00000+0  36122-3 0  9995
2 48801  87.8961 306.1739 0001674  96.7371 263.3950 13.15550295213350
ONEWEB-0239             
1 48802U 21045AM  25297.72137398  .00000168  00000+0  41227-3 0  9992
2 48802  87.8964 306.2030 0002531 104.8769 255.2642 13.15548470213387
ONEWEB-0249             
1 48967U 21060A   25297.84150867  .00000056  00000+0  11393-3 0  9997
2 48967  87.8982 275.6602 0001972  90.1187 270.0169 13.16594425208646
ONEWEB-0250             
1 48968U 21060B   25297.84670316  .00000000  00000+0 -31061-4 0  9999
2 48968  87.8981 274.1853 0002959  83.8765 276.2708 13.25816371209033
ONEWEB-0252             
1 48970U 21060D   25297.87315823 -.00000140  00000+0 -39875-3 0  9990
2 48970  87.8983 275.6473 0001653  89.6416 270.4905 13.16593294208691
ONEWEB-0253             
1 48971U 21060E   25297.86207701 -.00000005  00000+0 -47161-4 0  9993
2 48971  87.8983 275.6533 0001916  92.4700 267.6651 13.16596000208626
ONEWEB-0254             
1 48972U 21060F   25297.87158435  .00000045  00000+0  85293-4 0  9994
2 48972  87.8992 275.6401 0002150  93.0567 267.0810 13.16592785208627
ONEWEB-0255             
1 48973U 21060G   25297.45360943  .00000019  00000+0  17120-4 0  9993
2 48973  87.8975 275.7447 0002036  92.4030 267.7334 13.16595278208641
ONEWEB-0256             
1 48974U 21060H   25297.85971578  .00000002  00000+0 -29349-4 0  9999
2 48974  87.8972 275.6745 0001778  83.9362 276.1971 13.16595171208669
ONEWEB-0257             
1 48975U 21060J   25297.66418649 -.00000055  00000+0 -17654-3 0  9998
2 48975  87.8985 275.6866 0001903  92.1523 267.9826 13.16594504208597
ONEWEB-0258             
1 48976U 21060K   25297.66577257 -.00000049  00000+0 -16061-3 0  9994
2 48976  87.8971 275.7058 0001994  84.9659 275.1699 13.16594515208609
ONEWEB-0259             
1 48977U 21060L   25297.65944234  .00000006  00000+0 -18795-4 0  9996
2 48977  87.8985 275.6965 0002020  90.6398 269.4964 13.16594804208631
ONEWEB-0260             
1 48978U 21060M   25297.49874762 -.00000023  00000+0 -93377-4 0  9996
2 48978  87.8975 275.7477 0001494  86.0275 274.1026 13.16595028208593
ONEWEB-0261             
1 48979U 21060N   25297.84863236  .00000050  00000+0  97840-4 0  9997
2 48979  87.8971 275.6800 0001920  99.7458 260.3890 13.16592064208691
ONEWEB-0262             
1 48980U 21060P   25297.67685222 -.00000022  00000+0 -90568-4 0  9998
2 48980  87.8980 275.6828 0002187  89.6811 270.4570 13.16594891208631
ONEWEB-0263             
1 48981U 21060Q   25297.86051750 -.00000023  00000+0 -94308-4 0  9990
2 48981  87.8973 275.6642 0002037  97.5474 262.5889 13.16594722208622
ONEWEB-0264             
1 48982U 21060R   25297.66971228 -.00000044  00000+0 -14826-3 0  9999
2 48982  87.8972 275.7066 0001696  91.7085 268.4240 13.16596166208605
ONEWEB-0266             
1 48984U 21060T   25297.69111022 -.00000065  00000+0 -20417-3 0  9998
2 48984  87.8982 275.6833 0002068  84.0571 276.0796 13.16594220208596
ONEWEB-0267             
1 48985U 21060U   25297.85417109  .00000026  00000+0  34413-4 0  9999
2 48985  87.8978 275.6517 0001859  95.1693 264.9650 13.16592627208624
ONEWEB-0268             
1 48986U 21060V   25297.67051744 -.00000004  00000+0 -43782-4 0  9996
2 48986  87.8981 275.6959 0001810  87.3995 272.7343 13.16596905208869
ONEWEB-0269             
1 48987U 21060W   25297.65150691 -.00000339  00000+0 -92138-3 0  9995
2 48987  87.8973 275.7266 0001745  81.5715 278.5614 13.16593798208633
ONEWEB-0270             
1 48988U 21060X   25297.66892241 -.00000030  00000+0 -11217-3 0  9998
2 48988  87.8981 275.6978 0002174  95.7212 264.4166 13.16592104208678
